{"type": "FeatureCollection", "features": [ {"type": "Feature", "properties": {"norad_id": 34117, "name": "COSMOS 2251 DEB", "group": "cosmos-2251-debris", "lat": -73.51286566633826, "lon": -114.4900014986434, "alt_km": 802.3944534375987, "timestamp": "2025-12-09T05:43:21.120144+00:00", "meta": {"OBJECT_NAME": "COSMOS 2251 DEB", "OBJECT_ID": "1993-036KN", "EPOCH": "2025-12-08T18:29:22.219584", "MEAN_MOTION": 14.39987445, "ECCENTRICITY": 0.0054427, "INCLINATION": 74.0405, "RA_OF_ASC_NODE": 351.162, "ARG_OF_PERICENTER": 68.7168, "MEAN_ANOMALY": 291.9786, "EPHEMERIS_TYPE": 0, "CLASSIFICATION_TYPE": "U", "NORAD_CAT_ID": 34117, "ELEMENT_SET_NO": 999, "REV_AT_EPOCH": 88066, "BSTAR": 0.0011148, "MEAN_MOTION_DOT": 3.548e-05, "MEAN_MOTION_DDOT": 0}, "tle": {"line1": "1 34117U 93036KN  25342.77039606  .00003548  00000+0  11148-2 0  9997", "line2": "2 34117  74.0405 351.1620 0054427  68.7168 291.9786 14.39987445880668"}}, "geometry": {"type": "Point", "coordinates": [-114.4900014986434, -73.51286566633826]}}, {"type": "Feature", "properties": {"norad_id": 34118, "name": "COSMOS 2251 DEB", "group": "cosmos-2251-debris", "lat": 17.41189364166662, "lon": -98.43172659299367, "alt_km": 571.5494674890506, "timestamp": "2025-12-09T05:43:21.120155+00:00", "meta": {"OBJECT_NAME": "COSMOS 2251 DEB", "OBJECT_ID": "1993-036KP", "EPOCH": "2025-12-08T20:16:47.105760", "MEAN_MOTION": 14.93699744, "ECCENTRICITY": 0.0060002, "INCLINATION": 73.9523, "RA_OF_ASC_NODE": 257.1847, "ARG_OF_PERICENTER": 88.5044, "MEAN_ANOMALY": 335.5634, "EPHEMERIS_TYPE": 0, "CLASSIFICATION_TYPE": "U", "NORAD_CAT_ID": 34118, "ELEMENT_SET_NO": 999, "REV_AT_EPOCH": 89118, "BSTAR": 0.0025407, "MEAN_MOTION_DOT": 0.00027926, "MEAN_MOTION_DDOT": 0}, "tle": {"line1": "1 34118U 93036KP  25342.84498965  .00027926  00000+0  25407-2 0  9992", "line2": "2 34118  73.9523 257.1847 0060002  88.5044 335.5634 14.93699744891181"}}, "geometry": {"type": "Point", "coordinates": [-98.43172659299367, 17.41189364166662]}}, {"type": "Feature", "properties": {"norad_id": 34120, "name": "COSMOS 2251 DEB", "group": "cosmos-2251-debris", "lat": -6.787538759041741, "lon": 44.24343928183384, "alt_km": 996.082650856024, "timestamp": "2025-12-09T05:43:21.120166+00:00", "meta": {"OBJECT_NAME": "COSMOS 2251 DEB", "OBJECT_ID": "1993-036KR", "EPOCH": "2025-12-08T18:51:27.985248", "MEAN_MOTION": 13.98677634, "ECCENTRICITY": 0.0181784, "INCLINATION": 73.9918, "RA_OF_ASC_NODE": 223.0692, "ARG_OF_PERICENTER": 51.6433, "MEAN_ANOMALY": 15.2877, "EPHEMERIS_TYPE": 0, "CLASSIFICATION_TYPE": "U", "NORAD_CAT_ID": 34120, "ELEMENT_SET_NO": 999, "REV_AT_EPOCH": 85925, "BSTAR": 0.00063446, "MEAN_MOTION_DOT": 1.027e-05, "MEAN_MOTION_DDOT": 0}, "tle": {"line1": "1 34120U 93036KR  25342.78574057  .00001027  00000+0  63446-3 0  9995", "line2": "2 34120  73.9918 223.0692 0181784  51.6433  15.2877 13.98677634859257"}}, "geometry": {"type": "Point", "coordinates": [44.24343928183384, -6.787538759041741]}}, {"type": "Feature", "properties": {"norad_id": 34121, "name": "COSMOS 2251 DEB", "group": "cosmos-2251-debris", "lat": 53.14754272012056, "lon": -99.34779642037905, "alt_km": 1090.911254317004, "timestamp": "2025-12-09T05:43:21.120177+00:00", "meta": {"OBJECT_NAME": "COSMOS 2251 DEB", "OBJECT_ID": "1993-036KS", "EPOCH": "2025-12-08T19:20:44.016000", "MEAN_MOTION": 13.91909479, "ECCENTRICITY": 0.024006, "INCLINATION": 73.993, "RA_OF_ASC_NODE": 103.9114, "ARG_OF_PERICENTER": 310.1997, "MEAN_ANOMALY": 167.366, "EPHEMERIS_TYPE": 0, "CLASSIFICATION_TYPE": "U", "NORAD_CAT_ID": 34121, "ELEMENT_SET_NO": 999, "REV_AT_EPOCH": 85070, "BSTAR": 0.0019155, "MEAN_MOTION_DOT": 3.065e-05, "MEAN_MOTION_DDOT": 0}, "tle": {"line1": "1 34121U 93036KS  25342.80606500  .00003065  00000+0  19155-2 0  9999", "line2": "2 34121  73.9930 103.9114 0240060 310.1997 167.3660 13.91909479850706"}}, "geometry": {"type": "Point", "coordinates": [-99.34779642037905, 53.14754272012056]}}, {"type": "Feature", "properties": {"norad_id": 34122, "name": "COSMOS 2251 DEB", "group": "cosmos-2251-debris", "lat": 6.080412967128187, "lon": -56.37704681692946, "alt_km": 730.3988877788997, "timestamp": "2025-12-09T05:43:21.120187+00:00", "meta": {"OBJECT_NAME": "COSMOS 2251 DEB", "OBJECT_ID": "1993-036KT", "EPOCH": "2025-12-08T15:53:27.638016", "MEAN_MOTION": 14.6496702, "ECCENTRICITY": 0.0084104, "INCLINATION": 74.0364, "RA_OF_ASC_NODE": 126.4784, "ARG_OF_PERICENTER": 24.4978, "MEAN_ANOMALY": 350.4182, "EPHEMERIS_TYPE": 0, "CLASSIFICATION_TYPE": "U", "NORAD_CAT_ID": 34122, "ELEMENT_SET_NO": 999, "REV_AT_EPOCH": 88625, "BSTAR": 0.0016181, "MEAN_MOTION_DOT": 9.107e-05, "MEAN_MOTION_DDOT": 0}, "tle": {"line1": "1 34122U 93036KT  25342.66212544  .00009107  00000+0  16181-2 0  9994", "line2": "2 34122  74.0364 126.4784 0084104  24.4978 350.4182 14.64967020886252"}}, "geometry": {"type": "Point", "coordinates": [-56.37704681692946, 6.080412967128187]}}, {"type": "Feature", "properties": {"norad_id": 34127, "name": "COSMOS 2251 DEB", "group": "cosmos-2251-debris", "lat": 33.82636691960597, "lon": -140.76174234900805, "alt_km": 806.6998717304068, "timestamp": "2025-12-09T05:43:21.120198+00:00", "meta": {"OBJECT_NAME": "COSMOS 2251 DEB", "OBJECT_ID": "1993-036KY", "EPOCH": "2025-12-08T16:11:50.706816", "MEAN_MOTION": 14.31480432, "ECCENTRICITY": 0.0114815, "INCLINATION": 74.1788, "RA_OF_ASC_NODE": 51.2096, "ARG_OF_PERICENTER": 252.1975, "MEAN_ANOMALY": 230.6503, "EPHEMERIS_TYPE": 0, "CLASSIFICATION_TYPE": "U", "NORAD_CAT_ID": 34127, "ELEMENT_SET_NO": 999, "REV_AT_EPOCH": 86713, "BSTAR": 0.0029653, "MEAN_MOTION_DOT": 8.451e-05, "MEAN_MOTION_DDOT": 0}, "tle": {"line1": "1 34127U 93036KY  25342.67489244  .00008451  00000+0  29653-2 0  9992", "line2": "2 34127  74.1788  51.2096 0114815 252.1975 230.6503 14.31480432867132"}}, "geometry": {"type": "Point", "coordinates": [-140.76174234900805, 33.82636691960597]}}, {"type": "Feature", "properties": {"norad_id": 34128, "name": "COSMOS 2251 DEB", "group": "cosmos-2251-debris", "lat": -16.08936821182809, "lon": 128.61449742198337, "alt_km": 582.6433549164358, "timestamp": "2025-12-09T05:43:21.120209+00:00", "meta": {"OBJECT_NAME": "COSMOS 2251 DEB", "OBJECT_ID": "1993-036KZ", "EPOCH": "2025-12-08T08:43:42.242304", "MEAN_MOTION": 15.00835895, "ECCENTRICITY": 0.00262328, "INCLINATION": 74.0007, "RA_OF_ASC_NODE": 305.6505, "ARG_OF_PERICENTER": 58.4265, "MEAN_ANOMALY": 93.6345, "EPHEMERIS_TYPE": 0, "CLASSIFICATION_TYPE": "U", "NORAD_CAT_ID": 34128, "ELEMENT_SET_NO": 999, "REV_AT_EPOCH": 89101, "BSTAR": 0.0024214608, "MEAN_MOTION_DOT": 0.00031108, "MEAN_MOTION_DDOT": 0}, "tle": {"line1": "1 34128U 93036KZ  25342.36368336  .00031108  00000+0  24215-2 0  9991", "line2": "2 34128  74.0007 305.6505 0026232  58.4265  93.6345 15.00835895891010"}}, "geometry": {"type": "Point", "coordinates": [128.61449742198337, -16.08936821182809]}}, {"type": "Feature", "properties": {"norad_id": 34129, "name": "COSMOS 2251 DEB", "group": "cosmos-2251-debris", "lat": 66.65037104616125, "lon": 27.91650396136319, "alt_km": 613.2987284428427, "timestamp": "2025-12-09T05:43:21.120219+00:00", "meta": {"OBJECT_NAME": "COSMOS 2251 DEB", "OBJECT_ID": "1993-036LA", "EPOCH": "2025-12-08T18:00:22.133088", "MEAN_MOTION": 14.75626001, "ECCENTRICITY": 0.0032794, "INCLINATION": 74.0353, "RA_OF_ASC_NODE": 347.332, "ARG_OF_PERICENTER": 70.1423, "MEAN_ANOMALY": 290.328, "EPHEMERIS_TYPE": 0, "CLASSIFICATION_TYPE": "U", "NORAD_CAT_ID": 34129, "ELEMENT_SET_NO": 999, "REV_AT_EPOCH": 61239, "BSTAR": 0.0018144, "MEAN_MOTION_DOT": 0.00012484, "MEAN_MOTION_DDOT": 0}, "tle": {"line1": "1 34129U 93036LA  25342.75025617  .00012484  00000+0  18144-2 0  9997", "line2": "2 34129  74.0353 347.3320 0032794  70.1423 290.3280 14.75626001612394"}}, "geometry": {"type": "Point", "coordinates": [27.91650396136319, 66.65037104616125]}}, {"type": "Feature", "properties": {"norad_id": 34136, "name": "COSMOS 2251 DEB", "group": "cosmos-2251-debris", "lat": 7.483523113908103, "lon": -132.6186609483834, "alt_km": 570.4886812300465, "timestamp": "2025-12-09T05:43:21.120230+00:00", "meta": {"OBJECT_NAME": "COSMOS 2251 DEB", "OBJECT_ID": "1993-036LH", "EPOCH": "2025-12-08T14:52:53.709312", "MEAN_MOTION": 14.80033719, "ECCENTRICITY": 0.0086126, "INCLINATION": 74.021, "RA_OF_ASC_NODE": 50.7573, "ARG_OF_PERICENTER": 174.8182, "MEAN_ANOMALY": 303.907, "EPHEMERIS_TYPE": 0, "CLASSIFICATION_TYPE": "U", "NORAD_CAT_ID": 34136, "ELEMENT_SET_NO": 999, "REV_AT_EPOCH": 89949, "BSTAR": 0.00078488, "MEAN_MOTION_DOT": 6.3e-05, "MEAN_MOTION_DDOT": 0}, "tle": {"line1": "1 34136U 93036LH  25342.62006608  .00006300  00000+0  78488-3 0  9998", "line2": "2 34136  74.0210  50.7573 0086126 174.8182 303.9070 14.80033719899491"}}, "geometry": {"type": "Point", "coordinates": [-132.6186609483834, 7.483523113908103]}}, {"type": "Feature", "properties": {"norad_id": 34139, "name": "COSMOS 2251 DEB", "group": "cosmos-2251-debris", "lat": 20.868173671375914, "lon": 74.46926637777092, "alt_km": 725.9721364233892, "timestamp": "2025-12-09T05:43:21.120240+00:00", "meta": {"OBJECT_NAME": "COSMOS 2251 DEB", "OBJECT_ID": "1993-036LL", "EPOCH": "2025-12-08T19:24:26.953056", "MEAN_MOTION": 14.58977361, "ECCENTRICITY": 0.0042544, "INCLINATION": 74.0312, "RA_OF_ASC_NODE": 261.555, "ARG_OF_PERICENTER": 333.2576, "MEAN_ANOMALY": 88.4461, "EPHEMERIS_TYPE": 0, "CLASSIFICATION_TYPE": "U", "NORAD_CAT_ID": 34139, "ELEMENT_SET_NO": 999, "REV_AT_EPOCH": 88092, "BSTAR": 0.0023236, "MEAN_MOTION_DOT": 0.0001103, "MEAN_MOTION_DDOT": 0}, "tle": {"line1": "1 34139U 93036LL  25342.80864529  .00011030  00000+0  23236-2 0  9991", "line2": "2 34139  74.0312 261.5550 0042544 333.2576  88.4461 14.58977361880920"}}, "geometry": {"type": "Point", "coordinates": [74.46926637777092, 20.868173671375914]}}]}